ONEWEB-0142             
1 47288U 20100AG  25332.19482198 -.00001539  00000+0 -43133-2 0  9994
2 47288  87.8956  30.5980 0001416  91.7129 268.4162 13.12446538238302
ONEWEB-0143             
1 47289U 20100AH  25332.12818492 -.00000216  00000+0 -63598-3 0  9997
2 47289  87.8957  30.6067 0001774 100.6165 259.5163 13.12445441238278
ONEWEB-0144             
1 47290U 20100AJ  25332.10062698  .00000002  00000+0 -30741-4 0  9993
2 47290  87.8954  30.5818 0001756  87.8345 272.2984 13.12442376238194
ONEWEB-0145             
1 47291U 20100AK  25332.14767330  .00000319  00000+0  85090-3 0  9999
2 47291  87.8958  30.6097 0001748  97.9173 262.2154 13.12443315238395
ONEWEB-0146             
1 47292U 20100AL  25332.14442802  .00000212  00000+0  55445-3 0  9997
2 47292  87.8955  30.5971 0002001 107.1895 252.9453 13.12443501238307
ONEWEB-0147             
1 47293U 20100AM  25332.18658995 -.00000298  00000+0 -86333-3 0  9990
2 47293  87.8964  30.5672 0001952  92.9217 267.2135 13.12442646238203
ONEWEB-0115             
1 48042U 21025A   25332.06687429  .00000328  00000+0  86320-3 0  9999
2 48042  87.8997   0.1905 0001803  95.0942 265.0393 13.13470610227199
ONEWEB-0152             
1 48043U 21025B   25332.08041742  .00000306  00000+0  80210-3 0  9992
2 48043  87.8988   0.1963 0001883  97.1610 262.9733 13.13469218227159
ONEWEB-0153             
1 48044U 21025C   25332.13458716  .00000067  00000+0  14910-3 0  9990
2 48044  87.8993   0.1897 0001762  93.7583 266.3747 13.13470187227159
ONEWEB-0154             
1 48045U 21025D   25332.13120013  .00000088  00000+0  20714-3 0  9999
2 48045  87.8994   0.1869 0001877  93.1607 266.9737 13.13470515227114
ONEWEB-0116             
1 48046U 21025E   25332.09395473  .00000016  00000+0  87035-5 0  9991
2 48046  87.8998   0.1785 0001901  96.9245 263.2100 13.13469912227251
ONEWEB-0150             
1 48047U 21025F   25332.07025360  .00000261  00000+0  68078-3 0  9991
2 48047  87.8997   0.1786 0001617  96.0557 264.0756 13.13469646227141
ONEWEB-0107             
1 48048U 21025G   25332.07195332  .00000383  00000+0  10146-2 0  9996
2 48048  87.8995   0.1750 0001668  86.2183 273.9137 13.13470455227123
ONEWEB-0101             
1 48049U 21025H   25332.11087998 -.00000287  00000+0 -82068-3 0  9998
2 48049  87.8990   0.2018 0001863  89.5920 270.5422 13.13470511227100
ONEWEB-0113             
1 48050U 21025J   25332.13291074  .00000036  00000+0  63172-4 0  9990
2 48050  87.8995   0.1278 0001796 102.4738 257.6592 13.13984363227201
ONEWEB-0112             
1 48051U 21025K   25332.07702946  .00000356  00000+0  93892-3 0  9995
2 48051  87.8996   0.1712 0001725  94.7277 265.4049 13.13470663227194
ONEWEB-0156             
1 48052U 21025L   25332.08548689  .00000203  00000+0  52218-3 0  9997
2 48052  87.8997   0.1811 0001672  91.6673 268.4648 13.13469660227174
