[{"OBJECT_NAME":"ONEWEB-0142","OBJECT_ID":"2020-100AG","EPOCH":"2025-11-28T04:40:32.619072","MEAN_MOTION":13.12446538,"ECCENTRICITY":0.0001416,"INCLINATION":87.8956,"RA_OF_ASC_NODE":30.598,"ARG_OF_PERICENTER":91.7129,"MEAN_ANOMALY":268.4162,"EPHEMERIS_TYPE":0,"CLASSIFICATION_TYPE":"U","NORAD_CAT_ID":47288,"ELEMENT_SET_NO":999,"REV_AT_EPOCH":23830,"BSTAR":-0.0043133,"MEAN_MOTION_DOT":-1.539e-5,"MEAN_MOTION_DDOT":0},{"OBJECT_NAME":"ONEWEB-0143","OBJECT_ID":"2020-100AH","EPOCH":"2025-11-28T03:04:35.177088","MEAN_MOTION":13.12445441,"ECCENTRICITY":0.0001774,"INCLINATION":87.8957,"RA_OF_ASC_NODE":30.6067,"ARG_OF_PERICENTER":100.6165,"MEAN_ANOMALY":259.5163,"EPHEMERIS_TYPE":0,"CLASSIFICATION_TYPE":"U","NORAD_CAT_ID":47289,"ELEMENT_SET_NO":999,"REV_AT_EPOCH":23827,"BSTAR":-0.00063598,"MEAN_MOTION_DOT":-2.16e-6,"MEAN_MOTION_DDOT":0},{"OBJECT_NAME":"ONEWEB-0144","OBJECT_ID":"2020-100AJ","EPOCH":"2025-11-28T02:24:54.171072","MEAN_MOTION":13.12442376,"ECCENTRICITY":0.0001756,"INCLINATION":87.8954,"RA_OF_ASC_NODE":30.5818,"ARG_OF_PERICENTER":87.8345,"MEAN_ANOMALY":272.2984,"EPHEMERIS_TYPE":0,"CLASSIFICATION_TYPE":"U","NORAD_CAT_ID":47290,"ELEMENT_SET_NO":999,"REV_AT_EPOCH":23819,"BSTAR":-3.0741e-5,"MEAN_MOTION_DOT":2.0e-8,"MEAN_MOTION_DDOT":0},{"OBJECT_NAME":"ONEWEB-0145","OBJECT_ID":"2020-100AK","EPOCH":"2025-11-28T03:32:38.973120","MEAN_MOTION":13.12443315,"ECCENTRICITY":0.0001748,"INCLINATION":87.8958,"RA_OF_ASC_NODE":30.6097,"ARG_OF_PERICENTER":97.9173,"MEAN_ANOMALY":262.2154,"EPHEMERIS_TYPE":0,"CLASSIFICATION_TYPE":"U","NORAD_CAT_ID":47291,"ELEMENT_SET_NO":999,"REV_AT_EPOCH":23839,"BSTAR":0.0008509,"MEAN_MOTION_DOT":3.19e-6,"MEAN_MOTION_DDOT":0},{"OBJECT_NAME":"ONEWEB-0146","OBJECT_ID":"2020-100AL","EPOCH":"2025-11-28T03:27:58.580928","MEAN_MOTION":13.12443501,"ECCENTRICITY":0.0002001,"INCLINATION":87.8955,"RA_OF_ASC_NODE":30.5971,"ARG_OF_PERICENTER":107.1895,"MEAN_ANOMALY":252.9453,"EPHEMERIS_TYPE":0,"CLASSIFICATION_TYPE":"U","NORAD_CAT_ID":47292,"ELEMENT_SET_NO":999,"REV_AT_EPOCH":23830,"BSTAR":0.00055445,"MEAN_MOTION_DOT":2.12e-6,"MEAN_MOTION_DDOT":0},{"OBJECT_NAME":"ONEWEB-0147","OBJECT_ID":"2020-100AM","EPOCH":"2025-11-28T04:28:41.371680","MEAN_MOTION":13.12442646,"ECCENTRICITY":0.0001952,"INCLINATION":87.8964,"RA_OF_ASC_NODE":30.5672,"ARG_OF_PERICENTER":92.9217,"MEAN_ANOMALY":267.2135,"EPHEMERIS_TYPE":0,"CLASSIFICATION_TYPE":"U","NORAD_CAT_ID":47293,"ELEMENT_SET_NO":999,"REV_AT_EPOCH":23820,"BSTAR":-0.00086333,"MEAN_MOTION_DOT":-2.98e-6,"MEAN_MOTION_DDOT":0},{"OBJECT_NAME":"ONEWEB-0115","OBJECT_ID":"2021-025A","EPOCH":"2025-11-28T01:36:17.938656","MEAN_MOTION":13.1347061,"ECCENTRICITY":0.0001803,"INCLINATION":87.8997,"RA_OF_ASC_NODE":0.1905,"ARG_OF_PERICENTER":95.0942,"MEAN_ANOMALY":265.0393,"EPHEMERIS_TYPE":0,"CLASSIFICATION_TYPE":"U","NORAD_CAT_ID":48042,"ELEMENT_SET_NO":999,"REV_AT_EPOCH":22719,"BSTAR":0.0008632,"MEAN_MOTION_DOT":3.28e-6,"MEAN_MOTION_DDOT":0},{"OBJECT_NAME":"ONEWEB-0152","OBJECT_ID":"2021-025B","EPOCH":"2025-11-28T01:55:48.065088","MEAN_MOTION":13.13469218,"ECCENTRICITY":0.0001883,"INCLINATION":87.8988,"RA_OF_ASC_NODE":0.1963,"ARG_OF_PERICENTER":97.161,"MEAN_ANOMALY":262.9733,"EPHEMERIS_TYPE":0,"CLASSIFICATION_TYPE":"U","NORAD_CAT_ID":48043,"ELEMENT_SET_NO":999,"REV_AT_EPOCH":22715,"BSTAR":0.0008021,"MEAN_MOTION_DOT":3.06e-6,"MEAN_MOTION_DDOT":0},{"OBJECT_NAME":"ONEWEB-0153","OBJECT_ID":"2021-025C","EPOCH":"2025-11-28T03:13:48.330624","MEAN_MOTION":13.13470187,"ECCENTRICITY":0.0001762,"INCLINATION":87.8993,"RA_OF_ASC_NODE":0.1897,"ARG_OF_PERICENTER":93.7583,"MEAN_ANOMALY":266.3747,"EPHEMERIS_TYPE":0,"CLASSIFICATION_TYPE":"U","NORAD_CAT_ID":48044,"ELEMENT_SET_NO":999,"REV_AT_EPOCH":22715,"BSTAR":0.0001491,"MEAN_MOTION_DOT":6.7e-7,"MEAN_MOTION_DDOT":0},{"OBJECT_NAME":"ONEWEB-0154","OBJECT_ID":"2021-025D","EPOCH":"2025-11-28T03:08:55.691232","MEAN_MOTION":13.13470515,"ECCENTRICITY":0.0001877,"INCLINATION":87.8994,"RA_OF_ASC_NODE":0.1869,"ARG_OF_PERICENTER":93.1607,"MEAN_ANOMALY":266.9737,"EPHEMERIS_TYPE":0,"CLASSIFICATION_TYPE":"U","NORAD_CAT_ID":48045,"ELEMENT_SET_NO":999,"REV_AT_EPOCH":22711,"BSTAR":0.00020714,"MEAN_MOTION_DOT":8.8e-7,"MEAN_MOTION_DDOT":0},{"OBJECT_NAME":"ONEWEB-0116","OBJECT_ID":"2021-025E","EPOCH":"2025-11-28T02:15:17.688672","MEAN_MOTION":13.13469912,"ECCENTRICITY":0.0001901,"INCLINATION":87.8998,"RA_OF_ASC_NODE":0.1785,"ARG_OF_PERICENTER":96.9245,"MEAN_ANOMALY":263.21,"EPHEMERIS_TYPE":0,"CLASSIFICATION_TYPE":"U","NORAD_CAT_ID":48046,"ELEMENT_SET_NO":999,"REV_AT_EPOCH":22725,"BSTAR":8.7035e-6,"MEAN_MOTION_DOT":1.6e-7,"MEAN_MOTION_DDOT":0},{"OBJECT_NAME":"ONEWEB-0150","OBJECT_ID":"2021-025F","EPOCH":"2025-11-28T01:41:09.911040","MEAN_MOTION":13.13469646,"ECCENTRICITY":0.0001617,"INCLINATION":87.8997,"RA_OF_ASC_NODE":0.1786,"ARG_OF_PERICENTER":96.0557,"MEAN_ANOMALY":264.0756,"EPHEMERIS_TYPE":0,"CLASSIFICATION_TYPE":"U","NORAD_CAT_ID":48047,"ELEMENT_SET_NO":999,"REV_AT_EPOCH":22714,"BSTAR":0.00068078,"MEAN_MOTION_DOT":2.61e-6,"MEAN_MOTION_DDOT":0},{"OBJECT_NAME":"ONEWEB-0107","OBJECT_ID":"2021-025G","EPOCH":"2025-11-28T01:43:36.766848","MEAN_MOTION":13.13470455,"ECCENTRICITY":0.0001668,"INCLINATION":87.8995,"RA_OF_ASC_NODE":0.175,"ARG_OF_PERICENTER":86.2183,"MEAN_ANOMALY":273.9137,"EPHEMERIS_TYPE":0,"CLASSIFICATION_TYPE":"U","NORAD_CAT_ID":48048,"ELEMENT_SET_NO":999,"REV_AT_EPOCH":22712,"BSTAR":0.0010146,"MEAN_MOTION_DOT":3.83e-6,"MEAN_MOTION_DDOT":0},{"OBJECT_NAME":"ONEWEB-0101","OBJECT_ID":"2021-025H","EPOCH":"2025-11-28T02:39:40.030272","MEAN_MOTION":13.13470511,"ECCENTRICITY":0.0001863,"INCLINATION":87.899,"RA_OF_ASC_NODE":0.2018,"ARG_OF_PERICENTER":89.592,"MEAN_ANOMALY":270.5422,"EPHEMERIS_TYPE":0,"CLASSIFICATION_TYPE":"U","NORAD_CAT_ID":48049,"ELEMENT_SET_NO":999,"REV_AT_EPOCH":22710,"BSTAR":-0.00082068,"MEAN_MOTION_DOT":-2.87e-6,"MEAN_MOTION_DDOT":0},{"OBJECT_NAME":"ONEWEB-0113","OBJECT_ID":"2021-025J","EPOCH":"2025-11-28T03:11:23.487936","MEAN_MOTION":13.13984363,"ECCENTRICITY":0.0001796,"INCLINATION":87.8995,"RA_OF_ASC_NODE":0.1278,"ARG_OF_PERICENTER":102.4738,"MEAN_ANOMALY":257.6592,"EPHEMERIS_TYPE":0,"CLASSIFICATION_TYPE":"U","NORAD_CAT_ID":48050,"ELEMENT_SET_NO":999,"REV_AT_EPOCH":22720,"BSTAR":6.3172e-5,"MEAN_MOTION_DOT":3.6e-7,"MEAN_MOTION_DDOT":0},{"OBJECT_NAME":"ONEWEB-0112","OBJECT_ID":"2021-025K","EPOCH":"2025-11-28T01:50:55.345344","MEAN_MOTION":13.13470663,"ECCENTRICITY":0.0001725,"INCLINATION":87.8996,"RA_OF_ASC_NODE":0.1712,"ARG_OF_PERICENTER":94.7277,"MEAN_ANOMALY":265.4049,"EPHEMERIS_TYPE":0,"CLASSIFICATION_TYPE":"U","NORAD_CAT_ID":48051,"ELEMENT_SET_NO":999,"REV_AT_EPOCH":22719,"BSTAR":0.00093892,"MEAN_MOTION_DOT":3.56e-6,"MEAN_MOTION_DDOT":0},{"OBJECT_NAME":"ONEWEB-0156","OBJECT_ID":"2021-025L","EPOCH":"2025-11-28T02:03:06.067296","MEAN_MOTION":13.1346966,"ECCENTRICITY":0.0001672,"INCLINATION":87.8997,"RA_OF_ASC_NODE":0.1811,"ARG_OF_PERICENTER":91.6673,"MEAN_ANOMALY":268.4648,"EPHEMERIS_TYPE":0,"CLASSIFICATION_TYPE":"U","NORAD_CAT_ID":48052,"ELEMENT_SET_NO":999,"REV_AT_EPOCH":22717,"BSTAR":0.00052218,"MEAN_MOTION_DOT":2.03e-6,"MEAN_MOTION_DDOT":0}]
